NORAD_CAT_ID,OBJECT_NAME,OBJECT_TYPE,EPOCH,MEAN_MOTION,ECCENTRICITY,INCLINATION,RA_OF_ASC_NODE,ARG_OF_PERICENTER,MEAN_ANOMALY,BSTAR,MEAN_MOTION_DOT,MEAN_MOTION_DDOT,TLE_LINE0,TLE_LINE1,TLE_LINE2,SEMIMAJOR_AXIS,PERIOD,APOGEE,PERIGEE,DECAYED
52089.0,STARLINK-3722,PAYLOAD,2024-08-01 22:11:02,15.08839438,0.0001508,53.2164,194.233,93.2542,266.8622,3.2991e-05,2.37e-06,0.0,0 STARLINK-3722,1 52089U 22029B   24214.92433373  .00000237  00000-0  32991-4 0  9996,2 52089  53.2164 194.2330 0001508  93.2542 266.8622 15.08839438132375,6917.882,95.438,540.79,538.704,0.0
52089.0,STARLINK-3722,PAYLOAD,2024-08-02 07:43:21,15.08842559,0.0001516,53.217,192.4479,86.2919,273.8247,5.3003e-05,5.56e-06,0.0,0 STARLINK-3722,1 52089U 22029B   24215.32177292  .00000556  00000-0  53003-4 0  9997,2 52089  53.2170 192.4479 0001516  86.2919 273.8247 15.08842559132431,6917.873,95.437,540.786,538.689,0.0
52089.0,STARLINK-3722,PAYLOAD,2024-08-02 15:40:16,15.08852059,0.0001588,53.2176,190.9609,85.1909,274.9265,7.1106e-05,8.44e-06,0.0,0 STARLINK-3722,1 52089U 22029B   24215.65296589  .00000844  00000-0  71106-4 0  9998,2 52089  53.2176 190.9609 0001588  85.1909 274.9265 15.08852059132484,6917.844,95.437,540.807,538.61,0.0
52089.0,STARLINK-3722,PAYLOAD,2024-08-02 22:01:49,15.08838673,0.0001218,53.2166,189.7744,84.0317,276.0814,0.00016441,2.33e-05,0.0,0 STARLINK-3722,1 52089U 22029B   24215.91792994  .00002330  00000-0  16441-3 0  9990,2 52089  53.2166 189.7744 0001218  84.0317 276.0814 15.08838673132524,6917.884,95.438,540.592,538.907,0.0
52089.0,STARLINK-3722,PAYLOAD,2024-08-03 04:23:21,15.08839367,0.0001349,53.2165,188.5809,98.6732,261.4413,0.00011472,1.538e-05,0.0,0 STARLINK-3722,1 52089U 22029B   24216.18289217  .00001538  00000-0  11472-3 0  9997,2 52089  53.2165 188.5809 0001349  98.6732 261.4413 15.08839367132567,6917.882,95.438,540.681,538.814,0.0
52089.0,STARLINK-3722,PAYLOAD,2024-08-03 07:34:08,15.08841583,0.0001464,53.2169,187.9873,86.1798,273.9361,0.00013014,1.784e-05,0.0,0 STARLINK-3722,1 52089U 22029B   24216.31537140  .00001784  00000-0  13014-3 0  9990,2 52089  53.2169 187.9873 0001464  86.1798 273.9361 15.08841583132582,6917.876,95.437,540.753,538.728,0.0
52089.0,STARLINK-3722,PAYLOAD,2024-08-03 15:31:03,15.08848186,0.0001464,53.217,186.5011,86.9135,273.2025,0.00012643,1.725e-05,0.0,0 STARLINK-3722,1 52089U 22029B   24216.64656687  .00001725  00000-0  12643-3 0  9996,2 52089  53.2170 186.5011 0001464  86.9135 273.2025 15.08848186132638,6917.855,95.437,540.733,538.708,0.0
52089.0,STARLINK-3722,PAYLOAD,2024-08-04 04:14:09,15.08839546,0.0001703,53.2186,184.1216,95.5451,264.5735,1.2653e-05,-8.7e-07,0.0,0 STARLINK-3722,1 52089U 22029B   24217.17649662 -.00000087  00000-0  12653-4 0  9993,2 52089  53.2186 184.1216 0001703  95.5451 264.5735 15.08839546132719,6917.882,95.438,540.925,538.569,0.0
52089.0,STARLINK-3722,PAYLOAD,2024-08-04 15:21:50,15.08843583,0.0001766,53.2189,182.039,98.1992,261.9201,4.6253e-05,4.48e-06,0.0,0 STARLINK-3722,1 52089U 22029B   24217.64017267  .00000448  00000-0  46253-4 0  9998,2 52089  53.2189 182.0390 0001766  98.1992 261.9201 15.08843583132782,6917.869,95.437,540.956,538.513,0.0
52089.0,STARLINK-3722,PAYLOAD,2024-08-05 04:04:55,15.08842378,0.0001643,53.218,179.6609,96.2208,263.8971,8.8534e-05,1.121e-05,0.0,0 STARLINK-3722,1 52089U 22029B   24218.17009111  .00001121  00000-0  88534-4 0  9993,2 52089  53.2180 179.6609 0001643  96.2208 263.8971 15.08842378132866,6917.873,95.437,540.875,538.602,0.0
52089.0,STARLINK-3722,PAYLOAD,2024-08-06 03:55:44,15.08837182,0.0001553,53.2184,175.1981,101.0482,259.0685,7.598e-05,9.21e-06,0.0,0 STARLINK-3722,1 52089U 22029B   24219.16370763  .00000921  00000-0  75980-4 0  9995,2 52089  53.2184 175.1981 0001553 101.0482 259.0685 15.08837182133017,6917.889,95.438,540.828,538.68,0.0
52089.0,STARLINK-3722,PAYLOAD,2024-08-06 07:06:31,15.08833067,0.0001563,53.218,174.6044,100.267,259.8499,4.199e-05,3.8e-06,0.0,0 STARLINK-3722,1 52089U 22029B   24219.29619221  .00000380  00000-0  41990-4 0  9997,2 52089  53.2180 174.6044 0001563 100.2670 259.8499 15.08833067133039,6917.902,95.438,540.848,538.685,0.0
52089.0,STARLINK-3722,PAYLOAD,2024-08-07 02:11:07,15.08847318,0.0001376,53.2183,171.0402,92.446,267.6689,0.00020375,2.957e-05,0.0,0 STARLINK-3722,1 52089U 22029B   24220.09106113  .00002957  00000-0  20375-3 0  9993,2 52089  53.2183 171.0402 0001376  92.4460 267.6689 15.08847318133157,6917.858,95.437,540.675,538.771,0.0
52089.0,STARLINK-3722,PAYLOAD,2024-08-09 05:03:27,15.08860735,0.0001492,53.2155,161.5218,110.217,249.8983,-2.5386e-05,-6.92e-06,0.0,0 STARLINK-3722,1 52089U 22029B   24222.21073086 -.00000692  00000-0 -25386-4 0  9995,2 52089  53.2155 161.5218 0001492 110.2170 249.8983 15.08860735133473,6917.817,95.436,540.714,538.65,0.0
52089.0,STARLINK-3722,PAYLOAD,2024-08-09 13:00:22,15.08870473,0.0002132,53.2153,160.0381,80.6958,279.4276,0.00013095,1.798e-05,0.0,0 STARLINK-3722,1 52089U 22029B   24222.54192473  .00001798  00000-0  13095-3 0  9992,2 52089  53.2153 160.0381 0002132  80.6958 279.4276 15.08870473133522,6917.787,95.436,541.127,538.177,0.0
52089.0,STARLINK-3722,PAYLOAD,2024-08-10 04:54:15,15.08841186,0.0001411,53.216,157.063,84.4585,275.6568,0.00011555,1.552e-05,0.0,0 STARLINK-3722,1 52089U 22029B   24223.20434330  .00001552  00000-0  11555-3 0  9994,2 52089  53.2160 157.0630 0001411  84.4585 275.6568 15.08841186133622,6917.877,95.437,540.718,538.766,0.0
52089.0,STARLINK-3722,PAYLOAD,2024-08-11 12:41:57,15.08874347,0.00016,53.2167,151.1161,80.882,279.2353,0.0011195,0.0001759,0.0,0 STARLINK-3722,1 52089U 22029B   24224.52913520  .00017590  00000-0  11195-2 0  9991,2 52089  53.2167 151.1161 0001600  80.8820 279.2353 15.08874347133824,6917.775,95.435,540.747,538.534,0.0
52089.0,STARLINK-3722,PAYLOAD,2024-08-12 04:35:48,15.08868027,0.0001498,53.2163,148.1418,99.0618,261.0544,0.0010486,0.00016453,0.0,0 STARLINK-3722,1 52089U 22029B   24225.19153595  .00016453  00000-0  10486-2 0  9992,2 52089  53.2163 148.1418 0001498  99.0618 261.0544 15.08868027133923,6917.795,95.436,540.696,538.623,0.0
52089.0,STARLINK-3722,PAYLOAD,2024-08-12 18:54:16,15.08881729,0.0003277,53.2158,145.4649,89.8548,270.2819,0.0015818,0.00025006,0.0,0 STARLINK-3722,1 52089U 22029B   24225.78769196  .00025006  00000-0  15818-2 0  9995,2 52089  53.2158 145.4649 0003277  89.8548 270.2819 15.08881729134011,6917.753,95.435,541.885,537.351,0.0
52089.0,STARLINK-3722,PAYLOAD,2024-08-13 04:26:36,15.08786548,0.0001623,53.2163,143.6825,98.6662,261.4514,-0.0014803,-0.00023735,0.0,0 STARLINK-3722,1 52089U 22029B   24226.18514925 -.00023735  00000-0 -14803-2 0  9990,2 52089  53.2163 143.6825 0001623  98.6662 261.4514 15.08786548134074,6918.044,95.441,541.032,538.786,0.0
52089.0,STARLINK-3722,PAYLOAD,2024-08-13 18:45:06,15.08802067,0.0001477,53.2164,141.01,94.1036,266.0125,0.00037318,5.65e-05,0.0,0 STARLINK-3722,1 52089U 22029B   24226.78132465  .00005650  00000-0  37318-3 0  9992,2 52089  53.2164 141.0100 0001477  94.1036 266.0125 15.08802067134160,6917.996,95.44,540.883,538.84,0.0
52089.0,STARLINK-3722,PAYLOAD,2024-08-13 21:55:53,15.08808333,0.0001496,53.2169,140.4148,99.4391,260.677,0.001616,0.00025502,0.0,0 STARLINK-3722,1 52089U 22029B   24226.91380943  .00025502  00000-0  16160-2 0  9992,2 52089  53.2169 140.4148 0001496  99.4391 260.6770 15.08808333134183,6917.977,95.44,540.877,538.807,0.0
52089.0,STARLINK-3722,PAYLOAD,2024-08-14 04:17:25,15.08844186,0.0001542,53.2162,139.2225,107.0756,253.0405,0.003071,0.00048932,0.0,0 STARLINK-3722,1 52089U 22029B   24227.17877033  .00048932  00000-0  30710-2 0  9991,2 52089  53.2162 139.2225 0001542 107.0756 253.0405 15.08844186134223,6917.868,95.437,540.799,538.666,0.0
52089.0,STARLINK-3722,PAYLOAD,2024-08-14 10:38:58,15.0886421,0.0001502,53.2162,138.0332,106.3611,253.7546,0.0027299,0.00043455,0.0,0 STARLINK-3722,1 52089U 22029B   24227.44372783  .00043455  00000-0  27299-2 0  9996,2 52089  53.2162 138.0332 0001502 106.3611 253.7546 15.08864210134264,6917.806,95.436,540.71,538.632,0.0
52089.0,STARLINK-3722,PAYLOAD,2024-08-14 21:46:39,15.08853241,0.0001228,53.2161,135.9494,85.4749,274.6384,0.0010973,0.00017225,0.0,0 STARLINK-3722,1 52089U 22029B   24227.90740545  .00017225  00000-0  10973-2 0  9999,2 52089  53.2161 135.9494 0001228  85.4749 274.6384 15.08853241134334,6917.84,95.437,540.554,538.855,0.0
52089.0,STARLINK-3722,PAYLOAD,2024-08-15 00:57:25,15.08862376,0.0001649,53.2168,135.3605,110.8089,249.308,0.00081024,0.00012638,0.0,0 STARLINK-3722,1 52089U 22029B   24228.03988282  .00012638  00000-0  81024-3 0  9995,2 52089  53.2168 135.3605 0001649 110.8089 249.3080 15.08862376134359,6917.812,95.436,540.818,538.536,0.0
52089.0,STARLINK-3722,PAYLOAD,2024-08-15 10:29:43,15.08890623,0.0001504,53.2169,133.5734,104.6231,255.4928,0.0014522,0.00022931,0.0,0 STARLINK-3722,1 52089U 22029B   24228.43731037  .00022931  00000-0  14522-2 0  9998,2 52089  53.2169 133.5734 0001504 104.6231 255.4928 15.08890623134415,6917.726,95.434,540.631,538.55,0.0
52089.0,STARLINK-3722,PAYLOAD,2024-08-15 21:37:25,15.08839817,0.0001343,53.2176,131.4934,92.4653,267.6493,0.00038299,5.813e-05,0.0,0 STARLINK-3722,1 52089U 22029B   24228.90099472  .00005813  00000-0  38299-3 0  9998,2 52089  53.2176 131.4934 0001343  92.4653 267.6493 15.08839817134482,6917.881,95.438,540.675,538.817,0.0
52089.0,STARLINK-3722,PAYLOAD,2024-08-16 00:48:12,15.0884067,0.0001173,53.2164,130.8971,83.823,276.2896,0.0013253,0.00020867,0.0,0 STARLINK-3722,1 52089U 22029B   24229.03347477  .00020867  00000-0  13253-2 0  9992,2 52089  53.2164 130.8971 0001173  83.8230 276.2896 15.08840670134504,6917.878,95.438,540.555,538.932,0.0
52089.0,STARLINK-3722,PAYLOAD,2024-08-17 02:14:22,15.08853064,0.0001382,53.2156,126.1398,99.6599,260.4549,0.00060342,9.332e-05,0.0,0 STARLINK-3722,1 52089U 22029B   24230.09331145  .00009332  00000-0  60342-3 0  9991,2 52089  53.2156 126.1398 0001382  99.6599 260.4549 15.08853064134669,6917.84,95.437,540.662,538.749,0.0
